CELESTIS-02             
1 25160U 98007D   22218.21956215 -.00000048  00000+0  36417-4 0  9991
2 25160 107.9881   6.9494 0061826  23.4846  47.0361 14.21637779270155
CELESTIS-03             
1 26034U 99070C   22218.15775729  .00009475  00000+0  44025-3 0  9990
2 26034  98.3121 229.1115 0008258 327.5266  32.5458 15.20221305228635
